#dP2022  7  5 12  0  0.00000000      96 __u+U ITR00 EXT  IAC
## 2217 216000.00000000   900.00000000 59765 0.5000000000000
+  116   C06C07C08C09C10C11C12C13C14C16C19C20C21C22C23C24C25
+        C26C27C28C29C30C32C33C34C35C36C37C38C39C40C41C42C43
+        C44C45C46E01E02E03E04E05E07E08E09E10E11E12E13E14E15
+        E18E19E21E24E25E26E27E30E31E33E34E36G01G02G03G04G05
+        G06G07G08G09G10G11G12G13G14G15G16G17G18G19G20G21G22
+        G23G24G25G26G27G28G29G30G31G32J02J03R01R02R03R04R05
+        R07R08R09R11R12R13R14R15R17R18R19R20R21R24  0  0  0
++        10 10 11  8  9  9  9 11  7  9  9  8  8  8  8 10  8
++         9  9  8  8  8  7  7 10  9  7  8  9 10 10  7  8  7
++        10  8  7  8  8  8  7  9  8  8  7  7  7  8  8  8  8
++         8  8  8  8  8  9  7  8  8  9  9  8  8  8  7  7  8
++         7  7  8  7  9  7  8  7  7  8  8  8  8  7  8  7  7
++         7  7  7  8  7  7  8  7  8  8  9 10  9  8  9 10  7
++         9  8  9  8  9  8  8  9  8 10  9  8  9  9  0  0  0
%c M  cc GPS ccc cccc cccc cccc cccc ccccc ccccc ccccc ccccc
%c cc cc ccc ccc cccc cccc cccc cccc ccccc ccccc ccccc ccccc
%f  0.0000000  0.000000000  0.00000000000  0.000000000000000
%f  0.0000000  0.000000000  0.00000000000  0.000000000000000
%i    0    0    0    0      0      0      0      0         0
%i    0    0    0    0      0      0      0      0         0
/* IAC                                ULTRA-RAPID PREDICTION
/* S/V CLOCKS ARE ALIGNED TO GNSS TIME                      
/* G:C1WC2W R:C1PC2P E:C1XC5X C:C2IC6I J:C1CC2S             
/* PCV:IGS14_2215 OL/AL:FES2004  NONE     YN ORB:CoN CLK:CoN
*  2022 07 05 23  0  0.00000000
PC06  -5869.260000  40187.576585 -10825.767935    332.951404
PC07  -4861.945878  26821.210632  32203.117759   -390.565571
PC08 -18578.863725  29456.174386 -23892.995201    392.341695
PC09  -2017.882909  41692.996011  -3125.658669   -937.174931
PC10   2345.365324  28547.611342  31321.292493    120.930428
PC11  -1821.925682  26990.948859   6980.227392    456.811531
PC12 -11888.418415  14809.273049  20482.129224   -583.808155
PC13 -13463.149019  30106.272214 -26307.357473     15.615287
PC14   -250.764965  16591.686640 -22426.081922    529.124305
PC16  -6787.345714  39358.370336 -12944.149643    142.417593
PC19 -10351.781586 -18022.501459  18634.239913   -147.774470
PC20   9083.140404 -13206.474363  22859.418372   -964.185841
PC21 -24348.536511     77.916077 -13593.369935   -620.552408
PC22 -24625.883333 -12640.971445   3398.724013   -962.925400
PC23  16560.452922   6757.943607  21432.212520   -941.365899
PC24 -18279.006288  20016.320791   6676.169327   -968.199091
PC25    194.711737  18819.011024  20607.147100   -711.821509
PC26 -24038.005682  10737.114462  -9312.817467    713.677008
PC27  15269.829971  -5223.360945 -22791.577944    749.731129
PC28  14613.987950  15115.449871 -18355.131809     86.623359
PC29  -6128.036938 -27101.313337   2574.707648    577.768298
PC30   6775.098225 -22712.154807 -14757.264752    500.758149
PC32  24404.172312   -235.704852  13562.550761   -973.579595
PC33  10416.281618  17980.002324 -18632.987927    -96.775165
PC34  -6164.890143  23374.171949  13909.880312   -365.333438
PC35 -14880.371270 -15749.338887  17589.534010    352.514928
PC36    795.728577 -19027.517677 -20366.954665   -972.786916
PC37  24215.834805  -9194.942800  10379.621658   -913.918204
PC38 -23795.787611  30755.530316 -16474.248637      8.078384
PC39  -8734.361354  36464.986812 -19047.580784     34.974234
PC40  -9363.653296  20810.130554  35453.464477     -0.104976
PC41  24506.281147  12786.035735  -3811.476620    -56.933026
PC42 -10157.134948  12696.723686 -22633.789911   -955.240680
PC43   5612.282045  27259.916479  -1902.683370      1.275589
PC44 -15247.659855   5512.975696  22694.185503    714.700265
PC45 -16744.068603  -6365.347925 -21393.551835    801.446119
PC46  17163.329777 -20405.384100  -8166.120458   -416.267710
PE01 -28861.151494   5844.712781   3018.282266   -509.566382
PE02  28814.845259  -5949.625084  -3179.012101    310.077646
PE03  19008.625182  -1532.929180  22644.936251   -576.014963
PE04  -5055.175357  18962.923905 -22150.434245  -1065.113793
PE05  22049.078402  17142.452073   9821.843611   -165.707193
PE07 -12213.059062 -25572.762994   8532.955337   -684.872695
PE08   4743.992479 -19018.311417  22180.587996   -558.620725
PE09  12376.720023  25510.346249  -8523.262551   -577.532038
PE10  -6644.982145  28094.845858  -6562.959297   -524.366497
PE11    951.115253  25027.646369 -15783.687983   3112.441158
PE12 -12875.956721  26458.985579   3123.981734    -46.908006
PE13   -402.265218 -25384.432401  15218.454304    429.644469
PE14 -17121.439884  -5617.162311  14962.727063  -1787.603871
PE15  12898.941251 -26438.158111  -3308.313988    735.061086
PE18  23481.152454   6386.513511 -21580.137557  -1248.265502
PE19 -20013.244747  -1116.089198 -21770.325376  -5175.689595
PE21 -25309.523079  -6245.942705 -14016.181592   -744.236414
PE24   5686.189848  15988.054168  24243.369187   -708.885253
PE25  25135.902655   6433.708860  14255.952203   -580.061134
PE26 -13961.272590  -8543.834099  24657.660378  -1343.207877
PE27  -7052.474459 -15631.340496 -24119.878742   -338.107607
PE30  16154.628015 -15469.293289 -19387.644815   -648.760360
PE31 -15185.871318  15743.364903  19953.267585   -499.448594
PE33 -18521.604294  11894.219707  19782.880655   -454.996192
PE34  18507.512862 -12106.709852 -19683.369451   -525.641806
PE36  13369.435897   9433.598230 -24671.493864   -398.034422
PG01 -13906.502921  22290.333892   1954.559258    327.193456
PG02  17048.500857  -6661.467749 -18655.471804   -651.871293
PG03 -15300.096084  12515.696901 -17799.879834   -299.201826
PG04  -6589.998548  16365.061943 -19816.672911   -149.334069
PG05  25247.949217  -5922.748080   5914.474192    -88.067693
PG06  11259.784279   9647.232199 -21971.590459    372.604190
PG07  -2517.176002  23256.519737  12504.228911    320.232996
PG08 -12195.249343   9002.548878  21758.320539    -75.007654
PG09   3286.658568  22690.965417 -13448.386364   -321.925472
PG10 -15943.804155 -11727.878029  18001.254459   -481.192432
PG11  17932.140213  -3662.712533 -19242.537529    -11.531571
PG12  18640.326788 -10270.362223 -16090.366202   -241.891729
PG13  16376.009028   1820.398974  20715.316355    342.789938
PG14  14088.464931  13157.791605  18316.170607   -112.013889
PG15  11603.761385 -10538.695262  21014.078236    -47.750862
PG16 -26763.020990   -914.345837   1041.255865   -513.585683
PG17  13282.203586  22893.220575  -1381.022430    633.404147
PG18   3556.389840 -23245.997146  12218.613320    122.007383
PG19  16622.733606  18064.930885 -10683.854519    179.855439
PG20  25696.372062   -288.200033  -6212.485542    505.634785
PG21 -16753.047258  16294.191509  12552.785324    161.202907
PG22 -17400.707633 -16016.139240 -11845.105739    287.415031
PG23  -4433.037637 -14657.886072  21700.110674    -31.573644
PG24  14451.755992 -20959.163568   6467.231205    204.348401
PG25   4333.808606 -15332.759525 -21501.467504    345.712450
PG26 -24588.656436  -4796.266931  -9368.417744    216.528939
PG27 -18142.432261  -5138.106047  18646.407606    219.806747
PG28  21116.838857  10169.168287  12775.415728    331.140068
PG29  -1919.175535 -22960.583780 -13198.033288   -530.787433
PG30   5809.607204  17896.012658  18740.765818   -533.291699
PG31 -13643.832930  -7188.011577 -21761.451847   -184.590668
PG32 -16210.801488 -20794.127979  -3812.420617   -168.722785
PJ02 -31199.367736  24415.022224  19337.995766     -1.354654
PJ03 -26153.639301  28777.952805  21196.505505     -3.312947
PR01  13488.696835  -3722.174176  21334.145543     11.004944
PR02  -4759.083028 -14625.298535  20413.075187    523.310051
PR03 -18609.963360 -16028.016491   7034.540649     59.676864
PR04 -21777.773211  -8654.127035 -10055.674884    149.591666
PR05 -13076.276893   3464.189804 -21617.613476     95.753488
PR07  18985.069355  15822.241474  -6182.623786     37.415540
PR08  21804.915143   8359.283743  10292.992479    -66.054037
PR09  -7682.829683  14923.770438  19197.748372     64.214288
PR11  21193.831620  -3935.854540  13665.519584     34.153331
PR12  21192.502722 -13433.917655  -4522.271945     19.165411
PR13   9234.446189 -14964.978343 -18488.695876    -24.315684
PR14  -9559.764685  -7290.734873 -22477.571419     24.983209
PR15 -21622.526173   4239.097336 -12821.378371     94.829780
PR17  -5849.985032 -19554.416104  15271.749208    540.943594
PR18 -10173.808242  -3568.646067  23127.428775    122.595547
PR19  -9897.912028  13070.515348  19535.876240   -195.246215
PR20  -3291.849751  25184.658638   2135.565287    -74.031774
PR21   6270.109891  18496.588313 -16433.658681   -315.066649
PR24   2348.607804 -25351.390257  -1404.911831    102.101212
EOF
